ONEWEB-0124             
1 47270U 20100N   26064.59034106  .00000102  00000+0  24696-3 0  9991
2 47270  87.8986  11.2412 0001684  79.8263 280.3055 13.12443223250985
ONEWEB-0125             
1 47271U 20100P   26064.26336572 -.00000370  00000+0 -10648-2 0  9998
2 47271  87.9002  11.2767 0001573  71.1689 288.9610 13.12444309251004
ONEWEB-0126             
1 47272U 20100Q   26064.58878415  .00000080  00000+0  18829-3 0  9997
2 47272  87.8998  11.2354 0001948  78.8436 281.2911 13.12443066251111
ONEWEB-0127             
1 47273U 20100R   26064.55476167 -.00000173  00000+0 -51629-3 0  9993
2 47273  87.8987  11.2463 0001984  80.9546 279.1807 13.12440679251136
ONEWEB-0128             
1 47274U 20100S   26064.57678877 -.00000291  00000+0 -84361-3 0  9998
2 47274  87.8989  11.2556 0001712  91.3080 268.8244 13.12443515251154
ONEWEB-0129             
1 47275U 20100T   26064.55646035 -.00000116  00000+0 -35792-3 0  9998
2 47275  87.8998  11.2227 0002946  80.3373 279.8088 13.12441998251086
ONEWEB-0130             
1 47276U 20100U   26064.58356538 -.00000117  00000+0 -35929-3 0  9991
2 47276  87.9006  11.2109 0001897  83.1537 276.9807 13.12443267251059
ONEWEB-0131             
1 47277U 20100V   26064.27522245 -.00000034  00000+0 -12995-3 0  9994
2 47277  87.8987  11.3025 0001856  81.4817 278.6522 13.12443170251058
ONEWEB-0132             
1 47278U 20100W   26064.22779347  .00000361  00000+0  96680-3 0  9991
2 47278  87.8995  11.3104 0001725  83.3396 276.7929 13.12441427250944
ONEWEB-0133             
1 47279U 20100X   26064.54954174  .00000050  00000+0  10351-3 0  9996
2 47279  87.9002  11.2113 0001741  84.1356 275.9971 13.12440813251146
ONEWEB-0134             
1 47280U 20100Y   26064.21424519  .00000318  00000+0  84812-3 0  9997
2 47280  87.9004  11.2746 0001940  87.0209 273.1141 13.12442993251074
ONEWEB-0135             
1 47281U 20100Z   26064.56660760 -.00000360  00000+0 -10361-2 0  9992
2 47281  87.8989  11.2411 0001922  90.3696 269.7652 13.12442094251140
ONEWEB-0136             
1 47282U 20100AA  26064.58525635 -.00000020  00000+0 -90583-4 0  9995
2 47282  87.8999  11.2100 0002129  89.0531 271.0842 13.12442872251073
ONEWEB-0137             
1 47283U 20100AB  26064.23794585  .00001413  00000+0  38915-2 0  9994
2 47283  87.9002  11.2842 0001923  79.0626 281.0719 13.12450445250931
ONEWEB-0138             
1 47284U 20100AC  26064.29217510  .00000428  00000+0  11550-2 0  9990
2 47284  87.8999  11.2829 0001999  84.6512 275.4845 13.12442830251027
ONEWEB-0139             
1 47285U 20100AD  26064.56168556 -.00000200  00000+0 -59132-3 0  9995
2 47285  87.8995  11.2172 0001860  80.0325 280.1013 13.12442012251138
