[{"OBJECT_NAME":"ONEWEB-0124","OBJECT_ID":"2020-100N","EPOCH":"2026-03-05T14:10:05.467584","MEAN_MOTION":13.12443223,"ECCENTRICITY":0.00016845,"INCLINATION":87.8986,"RA_OF_ASC_NODE":11.2412,"ARG_OF_PERICENTER":79.8263,"MEAN_ANOMALY":280.3055,"EPHEMERIS_TYPE":0,"CLASSIFICATION_TYPE":"U","NORAD_CAT_ID":47270,"ELEMENT_SET_NO":999,"REV_AT_EPOCH":25098,"BSTAR":0.00024696134,"MEAN_MOTION_DOT":1.02e-6,"MEAN_MOTION_DDOT":0},{"OBJECT_NAME":"ONEWEB-0125","OBJECT_ID":"2020-100P","EPOCH":"2026-03-05T06:19:14.798208","MEAN_MOTION":13.12444309,"ECCENTRICITY":0.00015732,"INCLINATION":87.9002,"RA_OF_ASC_NODE":11.2767,"ARG_OF_PERICENTER":71.1689,"MEAN_ANOMALY":288.961,"EPHEMERIS_TYPE":0,"CLASSIFICATION_TYPE":"U","NORAD_CAT_ID":47271,"ELEMENT_SET_NO":999,"REV_AT_EPOCH":25100,"BSTAR":-0.0010648394,"MEAN_MOTION_DOT":-3.7e-6,"MEAN_MOTION_DDOT":0},{"OBJECT_NAME":"ONEWEB-0126","OBJECT_ID":"2020-100Q","EPOCH":"2026-03-05T14:07:50.950560","MEAN_MOTION":13.12443066,"ECCENTRICITY":0.00019483,"INCLINATION":87.8998,"RA_OF_ASC_NODE":11.2354,"ARG_OF_PERICENTER":78.8436,"MEAN_ANOMALY":281.2911,"EPHEMERIS_TYPE":0,"CLASSIFICATION_TYPE":"U","NORAD_CAT_ID":47272,"ELEMENT_SET_NO":999,"REV_AT_EPOCH":25111,"BSTAR":0.00018828951,"MEAN_MOTION_DOT":8.0e-7,"MEAN_MOTION_DDOT":0},{"OBJECT_NAME":"ONEWEB-0127","OBJECT_ID":"2020-100R","EPOCH":"2026-03-05T13:18:51.408288","MEAN_MOTION":13.12440679,"ECCENTRICITY":0.00019843,"INCLINATION":87.8987,"RA_OF_ASC_NODE":11.2463,"ARG_OF_PERICENTER":80.9546,"MEAN_ANOMALY":279.1807,"EPHEMERIS_TYPE":0,"CLASSIFICATION_TYPE":"U","NORAD_CAT_ID":47273,"ELEMENT_SET_NO":999,"REV_AT_EPOCH":25113,"BSTAR":-0.00051629006,"MEAN_MOTION_DOT":-1.73e-6,"MEAN_MOTION_DDOT":0},{"OBJECT_NAME":"ONEWEB-0128","OBJECT_ID":"2020-100S","EPOCH":"2026-03-05T13:50:34.549728","MEAN_MOTION":13.12443515,"ECCENTRICITY":0.00017122,"INCLINATION":87.8989,"RA_OF_ASC_NODE":11.2556,"ARG_OF_PERICENTER":91.308,"MEAN_ANOMALY":268.8244,"EPHEMERIS_TYPE":0,"CLASSIFICATION_TYPE":"U","NORAD_CAT_ID":47274,"ELEMENT_SET_NO":999,"REV_AT_EPOCH":25115,"BSTAR":-0.00084360942,"MEAN_MOTION_DOT":-2.91e-6,"MEAN_MOTION_DDOT":0},{"OBJECT_NAME":"ONEWEB-0129","OBJECT_ID":"2020-100T","EPOCH":"2026-03-05T13:21:18.174240","MEAN_MOTION":13.12441998,"ECCENTRICITY":0.00029468,"INCLINATION":87.8998,"RA_OF_ASC_NODE":11.2227,"ARG_OF_PERICENTER":80.3373,"MEAN_ANOMALY":279.8088,"EPHEMERIS_TYPE":0,"CLASSIFICATION_TYPE":"U","NORAD_CAT_ID":47275,"ELEMENT_SET_NO":999,"REV_AT_EPOCH":25108,"BSTAR":-0.00035791923,"MEAN_MOTION_DOT":-1.16e-6,"MEAN_MOTION_DDOT":0},{"OBJECT_NAME":"ONEWEB-0130","OBJECT_ID":"2020-100U","EPOCH":"2026-03-05T14:00:20.048832","MEAN_MOTION":13.12443267,"ECCENTRICITY":0.00018976,"INCLINATION":87.9006,"RA_OF_ASC_NODE":11.2109,"ARG_OF_PERICENTER":83.1537,"MEAN_ANOMALY":276.9807,"EPHEMERIS_TYPE":0,"CLASSIFICATION_TYPE":"U","NORAD_CAT_ID":47276,"ELEMENT_SET_NO":999,"REV_AT_EPOCH":25105,"BSTAR":-0.00035929398,"MEAN_MOTION_DOT":-1.17e-6,"MEAN_MOTION_DDOT":0},{"OBJECT_NAME":"ONEWEB-0131","OBJECT_ID":"2020-100V","EPOCH":"2026-03-05T06:36:19.219680","MEAN_MOTION":13.1244317,"ECCENTRICITY":0.00018567,"INCLINATION":87.8987,"RA_OF_ASC_NODE":11.3025,"ARG_OF_PERICENTER":81.4817,"MEAN_ANOMALY":278.6522,"EPHEMERIS_TYPE":0,"CLASSIFICATION_TYPE":"U","NORAD_CAT_ID":47277,"ELEMENT_SET_NO":999,"REV_AT_EPOCH":25105,"BSTAR":-0.00012995405,"MEAN_MOTION_DOT":-3.4e-7,"MEAN_MOTION_DDOT":0},{"OBJECT_NAME":"ONEWEB-0132","OBJECT_ID":"2020-100W","EPOCH":"2026-03-05T05:28:01.355808","MEAN_MOTION":13.12441427,"ECCENTRICITY":0.00017258,"INCLINATION":87.8995,"RA_OF_ASC_NODE":11.3104,"ARG_OF_PERICENTER":83.3396,"MEAN_ANOMALY":276.7929,"EPHEMERIS_TYPE":0,"CLASSIFICATION_TYPE":"U","NORAD_CAT_ID":47278,"ELEMENT_SET_NO":999,"REV_AT_EPOCH":25094,"BSTAR":0.00096679974,"MEAN_MOTION_DOT":3.61e-6,"MEAN_MOTION_DDOT":0},{"OBJECT_NAME":"ONEWEB-0133","OBJECT_ID":"2020-100X","EPOCH":"2026-03-05T13:11:20.406336","MEAN_MOTION":13.12440813,"ECCENTRICITY":0.00017413,"INCLINATION":87.9002,"RA_OF_ASC_NODE":11.2113,"ARG_OF_PERICENTER":84.1356,"MEAN_ANOMALY":275.9971,"EPHEMERIS_TYPE":0,"CLASSIFICATION_TYPE":"U","NORAD_CAT_ID":47279,"ELEMENT_SET_NO":999,"REV_AT_EPOCH":25114,"BSTAR":0.00010351105,"MEAN_MOTION_DOT":5.0e-7,"MEAN_MOTION_DDOT":0},{"OBJECT_NAME":"ONEWEB-0134","OBJECT_ID":"2020-100Y","EPOCH":"2026-03-05T05:08:30.784416","MEAN_MOTION":13.12442993,"ECCENTRICITY":0.00019402,"INCLINATION":87.9004,"RA_OF_ASC_NODE":11.2746,"ARG_OF_PERICENTER":87.0209,"MEAN_ANOMALY":273.1141,"EPHEMERIS_TYPE":0,"CLASSIFICATION_TYPE":"U","NORAD_CAT_ID":47280,"ELEMENT_SET_NO":999,"REV_AT_EPOCH":25107,"BSTAR":0.00084812425,"MEAN_MOTION_DOT":3.18e-6,"MEAN_MOTION_DDOT":0},{"OBJECT_NAME":"ONEWEB-0135","OBJECT_ID":"2020-100Z","EPOCH":"2026-03-05T13:35:54.896640","MEAN_MOTION":13.12442094,"ECCENTRICITY":0.00019228,"INCLINATION":87.8989,"RA_OF_ASC_NODE":11.2411,"ARG_OF_PERICENTER":90.3696,"MEAN_ANOMALY":269.7652,"EPHEMERIS_TYPE":0,"CLASSIFICATION_TYPE":"U","NORAD_CAT_ID":47281,"ELEMENT_SET_NO":999,"REV_AT_EPOCH":25114,"BSTAR":-0.0010360782,"MEAN_MOTION_DOT":-3.6e-6,"MEAN_MOTION_DDOT":0},{"OBJECT_NAME":"ONEWEB-0136","OBJECT_ID":"2020-100AA","EPOCH":"2026-03-05T14:02:46.148640","MEAN_MOTION":13.12442872,"ECCENTRICITY":0.00021297,"INCLINATION":87.8999,"RA_OF_ASC_NODE":11.21,"ARG_OF_PERICENTER":89.0531,"MEAN_ANOMALY":271.0842,"EPHEMERIS_TYPE":0,"CLASSIFICATION_TYPE":"U","NORAD_CAT_ID":47282,"ELEMENT_SET_NO":999,"REV_AT_EPOCH":25107,"BSTAR":-9.0583231e-5,"MEAN_MOTION_DOT":-2.0e-7,"MEAN_MOTION_DDOT":0},{"OBJECT_NAME":"ONEWEB-0137","OBJECT_ID":"2020-100AB","EPOCH":"2026-03-05T05:42:38.521440","MEAN_MOTION":13.12450445,"ECCENTRICITY":0.00019238,"INCLINATION":87.9002,"RA_OF_ASC_NODE":11.2842,"ARG_OF_PERICENTER":79.0626,"MEAN_ANOMALY":281.0719,"EPHEMERIS_TYPE":0,"CLASSIFICATION_TYPE":"U","NORAD_CAT_ID":47283,"ELEMENT_SET_NO":999,"REV_AT_EPOCH":25093,"BSTAR":0.0038914682,"MEAN_MOTION_DOT":1.413e-5,"MEAN_MOTION_DDOT":0},{"OBJECT_NAME":"ONEWEB-0138","OBJECT_ID":"2020-100AC","EPOCH":"2026-03-05T07:00:43.928640","MEAN_MOTION":13.1244283,"ECCENTRICITY":0.00019993,"INCLINATION":87.8999,"RA_OF_ASC_NODE":11.2829,"ARG_OF_PERICENTER":84.6512,"MEAN_ANOMALY":275.4845,"EPHEMERIS_TYPE":0,"CLASSIFICATION_TYPE":"U","NORAD_CAT_ID":47284,"ELEMENT_SET_NO":999,"REV_AT_EPOCH":25102,"BSTAR":0.0011549554,"MEAN_MOTION_DOT":4.28e-6,"MEAN_MOTION_DDOT":0},{"OBJECT_NAME":"ONEWEB-0139","OBJECT_ID":"2020-100AD","EPOCH":"2026-03-05T13:28:49.632384","MEAN_MOTION":13.12442012,"ECCENTRICITY":0.00018606,"INCLINATION":87.8995,"RA_OF_ASC_NODE":11.2172,"ARG_OF_PERICENTER":80.0325,"MEAN_ANOMALY":280.1013,"EPHEMERIS_TYPE":0,"CLASSIFICATION_TYPE":"U","NORAD_CAT_ID":47285,"ELEMENT_SET_NO":999,"REV_AT_EPOCH":25113,"BSTAR":-0.00059132343,"MEAN_MOTION_DOT":-2.0e-6,"MEAN_MOTION_DDOT":0}]
